$$SOE
2461309.500000000, A.D. 2026-Sep-26 00:00:00.0000, 6.865071316921074E+08, 3.144751760532568E+08, 2.381963038407581E+08,
2461316.500000000, A.D. 2026-Oct-03 00:00:00.0000, 6.836398615555803E+08, 3.186856253956125E+08, 2.391091893162887E+08,
2461323.500000000, A.D. 2026-Oct-10 00:00:00.0000, 6.807056211156554E+08, 3.228647960405304E+08, 2.399986300673172E+08,
2461330.500000000, A.D. 2026-Oct-17 00:00:00.0000, 6.777045544345382E+08, 3.270122080138780E+08, 2.408644883949944E+08,
2461337.500000000, A.D. 2026-Oct-24 00:00:00.0000, 6.746368021405058E+08, 3.311273769662769E+08, 2.417066244130895E+08,
2461344.500000000, A.D. 2026-Oct-31 00:00:00.0000, 6.715025015248147E+08, 3.352098137831963E+08, 2.425248959682190E+08,
2461351.500000000, A.D. 2026-Nov-07 00:00:00.0000, 6.683017870657264E+08, 3.392590241030086E+08, 2.433191585118822E+08,
2461358.500000000, A.D. 2026-Nov-14 00:00:00.0000, 6.650347915805275E+08, 3.432745086302351E+08, 2.440892649784780E+08,
2461365.500000000, A.D. 2026-Nov-21 00:00:00.0000, 6.617016461937255E+08, 3.472557649257587E+08, 2.448350658913223E+08,
2461372.500000000, A.D. 2026-Nov-28 00:00:00.0000, 6.583024781234807E+08, 3.512022876660391E+08, 2.455564095427441E+08,
2461379.500000000, A.D. 2026-Dec-05 00:00:00.0000, 6.548374099063067E+08, 3.551135667148746E+08, 2.462531418631189E+08,
2461386.500000000, A.D. 2026-Dec-12 00:00:00.0000, 6.513065602252290E+08, 3.589890861182948E+08, 2.469251062182042E+08,
2461393.500000000, A.D. 2026-Dec-19 00:00:00.0000, 6.477100444542304E+08, 3.628283240286882E+08, 2.475721433085552E+08,
2461400.500000000, A.D. 2026-Dec-26 00:00:00.0000, 6.440479747766948E+08, 3.666307526898084E+08, 2.481940911133139E+08,
2461407.500000000, A.D. 2027-Jan-02 00:00:00.0000, 6.403204601535840E+08, 3.703958382913330E+08, 2.487907848375793E+08,
2461414.500000000, A.D. 2027-Jan-09 00:00:00.0000, 6.365276062578198E+08, 3.741230407126533E+08, 2.493620568543247E+08,
2461421.500000000, A.D. 2027-Jan-16 00:00:00.0000, 6.326695154092879E+08, 3.778118131641926E+08, 2.499077366383256E+08,
2461428.500000000, A.D. 2027-Jan-23 00:00:00.0000, 6.287462865551783E+08, 3.814616016861159E+08, 2.504276506845799E+08,
2461435.500000000, A.D. 2027-Jan-30 00:00:00.0000, 6.247580154819602E+08, 3.850718444561588E+08, 2.509216223899931E+08,
2461442.500000000, A.D. 2027-Feb-06 00:00:00.0000, 6.207047956822768E+08, 3.886419712460776E+08, 2.513894718869809E+08,
2461449.500000000, A.D. 2027-Feb-13 00:00:00.0000, 6.165867194149745E+08, 3.921714042458180E+08, 2.518310159705693E+08,
2461456.500000000, A.D. 2027-Feb-20 00:00:00.0000, 6.124038765930184E+08, 3.956595594640039E+08, 2.522460682707936E+08,
2461463.500000000, A.D. 2027-Feb-27 00:00:00.0000, 6.081563528945165E+08, 3.991058454909054E+08, 2.526344392795965E+08,
2461470.500000000, A.D. 2027-Mar-06 00:00:00.0000, 6.038442301147879E+08, 4.025096615460488E+08, 2.529959361123358E+08,
2461477.500000000, A.D. 2027-Mar-13 00:00:00.0000, 5.994675871590912E+08, 4.058703968593934E+08, 2.533303623177686E+08,
2461484.500000000, A.D. 2027-Mar-20 00:00:00.0000, 5.950265005465612E+08, 4.091874305510350E+08, 2.536375177715593E+08,
2461491.500000000, A.D. 2027-Mar-27 00:00:00.0000, 5.905210446275412E+08, 4.124601314601303E+08, 2.539171985896925E+08,
2461498.500000000, A.D. 2027-Apr-03 00:00:00.0000, 5.859512917174665E+08, 4.156878578749055E+08, 2.541691970390895E+08,
2461505.500000000, A.D. 2027-Apr-10 00:00:00.0000, 5.813173122088259E+08, 4.188699571863921E+08, 2.543933014415347E+08,
2461512.500000000, A.D. 2027-Apr-17 00:00:00.0000, 5.766191746835799E+08, 4.220057654511424E+08, 2.545892960675872E+08,
2461519.500000000, A.D. 2027-Apr-24 00:00:00.0000, 5.718569461055884E+08, 4.250946068003181E+08, 2.547569610080377E+08,
2461526.500000000, A.D. 2027-May-01 00:00:00.0000, 5.670306923930913E+08, 4.281357927224860E+08, 2.548960719976398E+08,
2461533.500000000, A.D. 2027-May-08 00:00:00.0000, 5.621404796790872E+08, 4.311286219679109E+08, 2.550064002239947E+08,
2461540.500000000, A.D. 2027-May-15 00:00:00.0000, 5.571863747630132E+08, 4.340723820270723E+08, 2.550877123365803E+08,
2461547.500000000, A.D. 2027-May-22 00:00:00.0000, 5.521684431900949E+08, 4.369663495913173E+08, 2.551397705874531E+08,
2461554.500000000, A.D. 2027-May-29 00:00:00.0000, 5.470867483149399E+08, 4.398097885269308E+08, 2.551623326759789E+08,
2461561.500000000, A.D. 2027-Jun-05 00:00:00.0000, 5.419413522348719E+08, 4.426019484935275E+08, 2.551551514723193E+08,
2461568.500000000, A.D. 2027-Jun-12 00:00:00.0000, 5.367323165858282E+08, 4.453420646376371E+08, 2.551179748388517E+08,
2461575.500000000, A.D. 2027-Jun-19 00:00:00.0000, 5.314597028701161E+08, 4.480293574256836E+08, 2.550505455033295E+08,
2461582.500000000, A.D. 2027-Jun-26 00:00:00.0000, 5.261235725958385E+08, 4.506630323542981E+08, 2.549526009367317E+08,
2461589.500000000, A.D. 2027-Jul-03 00:00:00.0000, 5.207239873605705E+08, 4.532422795455492E+08, 2.548238732243797E+08,
2461596.500000000, A.D. 2027-Jul-10 00:00:00.0000, 5.152610089166659E+08, 4.557662732351192E+08, 2.546640889277490E+08,
2461603.500000000, A.D. 2027-Jul-17 00:00:00.0000, 5.097346992552186E+08, 4.582341711138521E+08, 2.544729689306423E+08,
2461610.500000000, A.D. 2027-Jul-24 00:00:00.0000, 5.041451208659166E+08, 4.606451134590939E+08, 2.542502282504477E+08,
2461617.500000000, A.D. 2027-Jul-31 00:00:00.0000, 4.984923375851824E+08, 4.629982222904360E+08, 2.539955757961788E+08,
2461624.500000000, A.D. 2027-Aug-07 00:00:00.0000, 4.927764158328633E+08, 4.652926017004300E+08, 2.537087141858115E+08,
2461631.500000000, A.D. 2027-Aug-14 00:00:00.0000, 4.869974239370593E+08, 4.675273391057048E+08, 2.533893398130054E+08,
2461638.500000000, A.D. 2027-Aug-21 00:00:00.0000, 4.811554301660988E+08, 4.697015040533597E+08, 2.530371428314520E+08,
2461645.500000000, A.D. 2027-Aug-28 00:00:00.0000, 4.752505029000177E+08, 4.718141457848145E+08, 2.526518068404590E+08,
2461652.500000000, A.D. 2027-Sep-04 00:00:00.0000, 4.692827117615860E+08, 4.738642920579609E+08, 2.522330085841630E+08,
2461659.500000000, A.D. 2027-Sep-11 00:00:00.0000, 4.632521283125755E+08, 4.758509485648846E+08, 2.517804177377269E+08,
2461666.500000000, A.D. 2027-Sep-18 00:00:00.0000, 4.571588264496034E+08, 4.777730982936996E+08, 2.512936967146521E+08,
2461673.500000000, A.D. 2027-Sep-25 00:00:00.0000, 4.510028827297264E+08, 4.796297007556638E+08, 2.507725004673651E+08,
2461680.500000000, A.D. 2027-Oct-02 00:00:00.0000, 4.447843767022853E+08, 4.814196911039379E+08, 2.502164762759258E+08,
2461687.500000000, A.D. 2027-Oct-09 00:00:00.0000, 4.385033912710636E+08, 4.831419791382664E+08, 2.496252635219178E+08,
2461694.500000000, A.D. 2027-Oct-16 00:00:00.0000, 4.321600131517057E+08, 4.847954481394167E+08, 2.489984934367561E+08,
2461701.500000000, A.D. 2027-Oct-23 00:00:00.0000, 4.257543336862526E+08, 4.863789535263013E+08, 2.483357887996838E+08,
2461708.500000000, A.D. 2027-Oct-30 00:00:00.0000, 4.192864503917288E+08, 4.878913219445116E+08, 2.476367636005651E+08,
2461715.500000000, A.D. 2027-Nov-06 00:00:00.0000, 4.127564680815914E+08, 4.893313519123998E+08, 2.469010228658082E+08,
2461722.500000000, A.D. 2027-Nov-13 00:00:00.0000, 4.061644975765583E+08, 4.906978139464101E+08, 2.461281626592003E+08,
2461729.500000000, A.D. 2027-Nov-20 00:00:00.0000, 3.995106549090423E+08, 4.919894479780384E+08, 2.453177698126942E+08,
2461736.500000000, A.D. 2027-Nov-27 00:00:00.0000, 3.927950626417479E+08, 4.932049610247318E+08, 2.444694214809268E+08,
2461743.500000000, A.D. 2027-Dec-04 00:00:00.0000, 3.860178512797408E+08, 4.943430260260352E+08, 2.435826847793007E+08,
2461750.500000000, A.D. 2027-Dec-11 00:00:00.0000, 3.791791602283280E+08, 4.954022808784253E+08, 2.426571164769804E+08,
2461757.500000000, A.D. 2027-Dec-18 00:00:00.0000, 3.722791385750033E+08, 4.963813273271341E+08, 2.416922626916608E+08,
2461764.500000000, A.D. 2027-Dec-25 00:00:00.0000, 3.653179458510963E+08, 4.972787297100738E+08, 2.406876585718432E+08,
2461771.500000000, A.D. 2028-Jan-01 00:00:00.0000, 3.582957528185639E+08, 4.980930135655227E+08, 2.396428279639046E+08,
$$EOE